CCSDS_OMM_VERS = 2.0
CREATION_DATE  = 
ORIGINATOR     = 

OBJECT_NAME    = ATLAS CENTAUR R/B
OBJECT_ID      = 1972-065B
CENTER_NAME    = EARTH
REF_FRAME      = TEME
TIME_SYSTEM    = UTC
MEAN_ELEMENT_THEORY = SGP/SGP4

EPOCH          = 2025-12-03T11:15:01.677888
MEAN_MOTION    = 14.77366433
ECCENTRICITY   = .0034594
INCLINATION    = 34.9998
RA_OF_ASC_NODE = 149.5041
ARG_OF_PERICENTER = 280.7995
MEAN_ANOMALY   = 78.8812

EPHEMERIS_TYPE = 0
CLASSIFICATION_TYPE = U
NORAD_CAT_ID   = 6155
ELEMENT_SET_NO = 999
REV_AT_EPOCH   = 82702
BSTAR          = .2446E-3
MEAN_MOTION_DOT = .1762E-4
MEAN_MOTION_DDOT = 0

CCSDS_OMM_VERS = 2.0
CREATION_DATE  = 
ORIGINATOR     = 

OBJECT_NAME    = SL-8 R/B
OBJECT_ID      = 1975-112B
CENTER_NAME    = EARTH
REF_FRAME      = TEME
TIME_SYSTEM    = UTC
MEAN_ELEMENT_THEORY = SGP/SGP4

EPOCH          = 2025-12-03T08:52:56.538048
MEAN_MOTION    = 14.38135507
ECCENTRICITY   = .0016432
INCLINATION    = 74.0596
RA_OF_ASC_NODE = 196.0920
ARG_OF_PERICENTER = 308.4941
MEAN_ANOMALY   = 51.4738

EPHEMERIS_TYPE = 0
CLASSIFICATION_TYPE = U
NORAD_CAT_ID   = 8459
ELEMENT_SET_NO = 999
REV_AT_EPOCH   = 61802
BSTAR          = .14644E-3
MEAN_MOTION_DOT = .418E-5
MEAN_MOTION_DDOT = 0

CCSDS_OMM_VERS = 2.0
CREATION_DATE  = 
ORIGINATOR     = 

OBJECT_NAME    = SL-3 R/B
OBJECT_ID      = 1977-057B
CENTER_NAME    = EARTH
REF_FRAME      = TEME
TIME_SYSTEM    = UTC
MEAN_ELEMENT_THEORY = SGP/SGP4

EPOCH          = 2025-12-03T11:32:42.442656
MEAN_MOTION    = 15.42603330
ECCENTRICITY   = .0006414
INCLINATION    = 97.5675
RA_OF_ASC_NODE = 140.4506
ARG_OF_PERICENTER = 271.8605
MEAN_ANOMALY   = 88.1907

EPHEMERIS_TYPE = 0
CLASSIFICATION_TYPE = U
NORAD_CAT_ID   = 10114
ELEMENT_SET_NO = 999
REV_AT_EPOCH   = 65348
BSTAR          = .36701E-3
MEAN_MOTION_DOT = .15894E-3
MEAN_MOTION_DDOT = 0

CCSDS_OMM_VERS = 2.0
CREATION_DATE  = 
ORIGINATOR     = 

OBJECT_NAME    = SEASAT 1
OBJECT_ID      = 1978-064A
CENTER_NAME    = EARTH
REF_FRAME      = TEME
TIME_SYSTEM    = UTC
MEAN_ELEMENT_THEORY = SGP/SGP4

EPOCH          = 2025-12-03T11:33:39.396672
MEAN_MOTION    = 14.46044349
ECCENTRICITY   = .0001874
INCLINATION    = 108.0099
RA_OF_ASC_NODE = 283.6118
ARG_OF_PERICENTER = 250.4163
MEAN_ANOMALY   = 109.6780

EPHEMERIS_TYPE = 0
CLASSIFICATION_TYPE = U
NORAD_CAT_ID   = 10967
ELEMENT_SET_NO = 999
REV_AT_EPOCH   = 49260
BSTAR          = .24504E-3
MEAN_MOTION_DOT = .738E-5
MEAN_MOTION_DDOT = 0

CCSDS_OMM_VERS = 2.0
CREATION_DATE  = 
ORIGINATOR     = 

OBJECT_NAME    = SL-14 R/B
OBJECT_ID      = 1979-011B
CENTER_NAME    = EARTH
REF_FRAME      = TEME
TIME_SYSTEM    = UTC
MEAN_ELEMENT_THEORY = SGP/SGP4

EPOCH          = 2025-12-03T07:55:34.362912
MEAN_MOTION    = 14.91751783
ECCENTRICITY   = .0016746
INCLINATION    = 82.5242
RA_OF_ASC_NODE = 187.9679
ARG_OF_PERICENTER = 24.3594
MEAN_ANOMALY   = 335.8413

EPHEMERIS_TYPE = 0
CLASSIFICATION_TYPE = U
NORAD_CAT_ID   = 11267
ELEMENT_SET_NO = 999
REV_AT_EPOCH   = 51441
BSTAR          = .81588E-4
MEAN_MOTION_DOT = .849E-5
MEAN_MOTION_DDOT = 0

CCSDS_OMM_VERS = 2.0
CREATION_DATE  = 
ORIGINATOR     = 

OBJECT_NAME    = SL-8 R/B
OBJECT_ID      = 1979-089B
CENTER_NAME    = EARTH
REF_FRAME      = TEME
TIME_SYSTEM    = UTC
MEAN_ELEMENT_THEORY = SGP/SGP4

EPOCH          = 2025-12-03T04:40:34.951008
MEAN_MOTION    = 14.42272659
ECCENTRICITY   = .0014478
INCLINATION    = 74.0690
RA_OF_ASC_NODE = 269.6443
ARG_OF_PERICENTER = 108.1380
MEAN_ANOMALY   = 252.1354

EPHEMERIS_TYPE = 0
CLASSIFICATION_TYPE = U
NORAD_CAT_ID   = 11574
ELEMENT_SET_NO = 999
REV_AT_EPOCH   = 42219
BSTAR          = .15184E-3
MEAN_MOTION_DOT = .475E-5
MEAN_MOTION_DDOT = 0

CCSDS_OMM_VERS = 2.0
CREATION_DATE  = 
ORIGINATOR     = 

OBJECT_NAME    = SL-14 R/B
OBJECT_ID      = 1980-005B
CENTER_NAME    = EARTH
REF_FRAME      = TEME
TIME_SYSTEM    = UTC
MEAN_ELEMENT_THEORY = SGP/SGP4

EPOCH          = 2025-12-03T09:56:34.943712
MEAN_MOTION    = 14.90773709
ECCENTRICITY   = .001709
INCLINATION    = 82.5156
RA_OF_ASC_NODE = 38.5429
ARG_OF_PERICENTER = 121.9460
MEAN_ANOMALY   = 238.3424

EPHEMERIS_TYPE = 0
CLASSIFICATION_TYPE = U
NORAD_CAT_ID   = 11672
ELEMENT_SET_NO = 999
REV_AT_EPOCH   = 46214
BSTAR          = .94174E-4
MEAN_MOTION_DOT = .953E-5
MEAN_MOTION_DDOT = 0

CCSDS_OMM_VERS = 2.0
CREATION_DATE  = 
ORIGINATOR     = 

OBJECT_NAME    = SL-8 R/B
OBJECT_ID      = 1981-003B
CENTER_NAME    = EARTH
REF_FRAME      = TEME
TIME_SYSTEM    = UTC
MEAN_ELEMENT_THEORY = SGP/SGP4

EPOCH          = 2025-12-03T12:09:57.648672
MEAN_MOTION    = 15.06604338
ECCENTRICITY   = .0280911
INCLINATION    = 82.9296
RA_OF_ASC_NODE = 18.7006
ARG_OF_PERICENTER = 152.0775
MEAN_ANOMALY   = 209.5861

EPHEMERIS_TYPE = 0
CLASSIFICATION_TYPE = U
NORAD_CAT_ID   = 12139
ELEMENT_SET_NO = 999
REV_AT_EPOCH   = 30017
BSTAR          = .65819E-3
MEAN_MOTION_DOT = .2464E-3
MEAN_MOTION_DDOT = 0

CCSDS_OMM_VERS = 2.0
CREATION_DATE  = 
ORIGINATOR     = 

OBJECT_NAME    = SL-3 R/B
OBJECT_ID      = 1981-046B
CENTER_NAME    = EARTH
REF_FRAME      = TEME
TIME_SYSTEM    = UTC
MEAN_ELEMENT_THEORY = SGP/SGP4

EPOCH          = 2025-12-03T11:09:05.021280
MEAN_MOTION    = 15.39307793
ECCENTRICITY   = .0019554
INCLINATION    = 81.2345
RA_OF_ASC_NODE = 45.0308
ARG_OF_PERICENTER = 357.0080
MEAN_ANOMALY   = 3.1041

EPHEMERIS_TYPE = 0
CLASSIFICATION_TYPE = U
NORAD_CAT_ID   = 12465
ELEMENT_SET_NO = 999
REV_AT_EPOCH   = 42361
BSTAR          = .37175E-3
MEAN_MOTION_DOT = .14631E-3
MEAN_MOTION_DDOT = 0

CCSDS_OMM_VERS = 2.0
CREATION_DATE  = 
ORIGINATOR     = 

OBJECT_NAME    = SL-3 R/B
OBJECT_ID      = 1981-103B
CENTER_NAME    = EARTH
REF_FRAME      = TEME
TIME_SYSTEM    = UTC
MEAN_ELEMENT_THEORY = SGP/SGP4

EPOCH          = 2025-12-03T10:40:23.789856
MEAN_MOTION    = 15.20052769
ECCENTRICITY   = .0011264
INCLINATION    = 81.1584
RA_OF_ASC_NODE = 326.2396
ARG_OF_PERICENTER = 249.1192
MEAN_ANOMALY   = 110.8833

EPHEMERIS_TYPE = 0
CLASSIFICATION_TYPE = U
NORAD_CAT_ID   = 12904
ELEMENT_SET_NO = 999
REV_AT_EPOCH   = 95860
BSTAR          = .42506E-3
MEAN_MOTION_DOT = .9209E-4
MEAN_MOTION_DDOT = 0

CCSDS_OMM_VERS = 2.0
CREATION_DATE  = 
ORIGINATOR     = 

OBJECT_NAME    = SL-3 R/B
OBJECT_ID      = 1982-013B
CENTER_NAME    = EARTH
REF_FRAME      = TEME
TIME_SYSTEM    = UTC
MEAN_ELEMENT_THEORY = SGP/SGP4

EPOCH          = 2025-12-03T11:58:47.959680
MEAN_MOTION    = 15.20948257
ECCENTRICITY   = .002364
INCLINATION    = 81.1750
RA_OF_ASC_NODE = 273.4236
ARG_OF_PERICENTER = 140.4546
MEAN_ANOMALY   = 219.8416

EPHEMERIS_TYPE = 0
CLASSIFICATION_TYPE = U
NORAD_CAT_ID   = 13068
ELEMENT_SET_NO = 999
REV_AT_EPOCH   = 38972
BSTAR          = .3177E-3
MEAN_MOTION_DOT = .7112E-4
MEAN_MOTION_DDOT = 0

CCSDS_OMM_VERS = 2.0
CREATION_DATE  = 
ORIGINATOR     = 

OBJECT_NAME    = SL-3 R/B
OBJECT_ID      = 1982-039B
CENTER_NAME    = EARTH
REF_FRAME      = TEME
TIME_SYSTEM    = UTC
MEAN_ELEMENT_THEORY = SGP/SGP4

EPOCH          = 2025-12-03T10:12:19.381248
MEAN_MOTION    = 15.09433181
ECCENTRICITY   = .0030337
INCLINATION    = 81.1729
RA_OF_ASC_NODE = 326.8119
ARG_OF_PERICENTER = 283.8630
MEAN_ANOMALY   = 75.9220

EPHEMERIS_TYPE = 0
CLASSIFICATION_TYPE = U
NORAD_CAT_ID   = 13154
ELEMENT_SET_NO = 999
REV_AT_EPOCH   = 36711
BSTAR          = .27226E-3
MEAN_MOTION_DOT = .4423E-4
MEAN_MOTION_DDOT = 0

