ATLAS CENTAUR R/B       
1 06155U 72065B   25337.46876942  .00001762  00000+0  24460-3 0  9997
2 06155  34.9998 149.5041 0034594 280.7995  78.8812 14.77366433827027
SL-8 R/B                
1 08459U 75112B   25337.37009882  .00000418  00000+0  14644-3 0  9993
2 08459  74.0596 196.0920 0016432 308.4941  51.4738 14.38135507618023
SL-3 R/B                
1 10114U 77057B   25337.48104679  .00015894  00000+0  36701-3 0  9998
2 10114  97.5675 140.4506 0006414 271.8605  88.1907 15.42603330653488
SEASAT 1                
1 10967U 78064A   25337.48170598  .00000738  00000+0  24504-3 0  9995
2 10967 108.0099 283.6118 0001874 250.4163 109.6780 14.46044349492603
SL-14 R/B               
1 11267U 79011B   25337.33025883  .00000849  00000+0  81588-4 0  9991
2 11267  82.5242 187.9679 0016746  24.3594 335.8413 14.91751783514418
SL-8 R/B                
1 11574U 79089B   25337.19484897  .00000475  00000+0  15184-3 0  9998
2 11574  74.0690 269.6443 0014478 108.1380 252.1354 14.42272659422197
SL-14 R/B               
1 11672U 80005B   25337.41429333  .00000953  00000+0  94174-4 0  9994
2 11672  82.5156  38.5429 0017090 121.9460 238.3424 14.90773709462147
SL-8 R/B                
1 12139U 81003B   25337.50691723  .00024640  00000+0  65819-3 0  9998
2 12139  82.9296  18.7006 0280911 152.0775 209.5861 15.06604338300172
SL-3 R/B                
1 12465U 81046B   25337.46464145  .00014631  00000+0  37175-3 0  9991
2 12465  81.2345  45.0308 0019554 357.0080   3.1041 15.39307793423612
SL-3 R/B                
1 12904U 81103B   25337.44471979  .00009209  00000+0  42506-3 0  9993
2 12904  81.1584 326.2396 0011264 249.1192 110.8833 15.20052769958607
SL-3 R/B                
1 13068U 82013B   25337.49916620  .00007112  00000+0  31770-3 0  9990
2 13068  81.1750 273.4236 0023640 140.4546 219.8416 15.20948257389721
SL-3 R/B                
1 13154U 82039B   25337.42522432  .00004423  00000+0  27226-3 0  9994
2 13154  81.1729 326.8119 0030337 283.8630  75.9220 15.09433181367118
